CTC2_L_00399001-01
1 10000U 24300EG  26075.70045139  .00000000  00000+0  00000-0 0  9998
2 10000  65.0000   0.0000 0000000   0.0000   0.0000 12.77881384    14
CTC2_L_00399001-02
1 10001U 24573MQ  26075.70045139  .00000000  00000+0  00000-0 0  9991
2 10001  65.0000   0.0000 0000000   0.0000  90.0000 12.77881384    14
CTC2_L_00399001-03
1 10002U 23435DK  26075.70045139  .00000000  00000+0  00000-0 0  9998
2 10002  65.0000   0.0000 0000000   0.0000 180.0000 12.77881384    15
CTC2_L_00399001-04
1 10003U 23874GY  26075.70045139  .00000000  00000+0  00000-0 0  9996
2 10003  65.0000   0.0000 0000000   0.0000 270.0000 12.77881384    16
CTC2_L_00399002-01
1 10004U 22697GC  26075.70045139  .00000000  00000+0  00000-0 0  9999
2 10004  65.0000  12.0000 0000000   0.0000  12.0000 12.77881384    14
CTC2_L_00399002-02
1 10005U 26216CI  26075.70045139  .00000000  00000+0  00000-0 0  9991
2 10005  65.0000  12.0000 0000000   0.0000 102.0000 12.77881384    15
CTC2_L_00399002-03
1 10006U 23976ME  26075.70045139  .00000000  00000+0  00000-0 0  9992
2 10006  65.0000  12.0000 0000000   0.0000 192.0000 12.77881384    15
CTC2_L_00399002-04
1 10007U 25839PX  26075.70045139  .00000000  00000+0  00000-0 0  9993
2 10007  65.0000  12.0000 0000000   0.0000 282.0000 12.77881384    16
CTC2_L_00399003-01
1 10008U 26535TC  26075.70045139  .00000000  00000+0  00000-0 0  9998
2 10008  65.0000  24.0000 0000000   0.0000  24.0000 12.77881384    14
CTC2_L_00399003-02
1 10009U 25154IN  26075.70045139  .00000000  00000+0  00000-0 0  9995
2 10009  65.0000  24.0000 0000000   0.0000 114.0000 12.77881384    15
CTC2_L_00399003-03
1 10010U 25193RV  26075.70045139  .00000000  00000+0  00000-0 0  9990
2 10010  65.0000  24.0000 0000000   0.0000 204.0000 12.77881384    17
CTC2_L_00399003-04
1 10011U 24786B   26075.70045139  .00000000  00000+0  00000-0 0  9998
2 10011  65.0000  24.0000 0000000   0.0000 294.0000 12.77881384    17
CTC2_L_00399004-01
1 10012U 24414QK  26075.70045139  .00000000  00000+0  00000-0 0  9997
2 10012  65.0000  36.0000 0000000   0.0000  36.0000 12.77881384    15
CTC2_L_00399004-02
1 10013U 23565FN  26075.70045139  .00000000  00000+0  00000-0 0  9994
2 10013  65.0000  36.0000 0000000   0.0000 126.0000 12.77881384    16
CTC2_L_00399004-03
1 10014U 23308PZ  26075.70045139  .00000000  00000+0  00000-0 0  9990
2 10014  65.0000  36.0000 0000000   0.0000 216.0000 12.77881384    17
CTC2_L_00399004-04
1 10015U 25890GU  26075.70045139  .00000000  00000+0  00000-0 0  9999
2 10015  65.0000  36.0000 0000000   0.0000 306.0000 12.77881384    18
CTC2_L_00399005-01
1 10016U 24634NN  26075.70045139  .00000000  00000+0  00000-0 0  9995
2 10016  65.0000  48.0000 0000000   0.0000  48.0000 12.77881384    15
CTC2_L_00399005-02
1 10017U 24298RV  26075.70045139  .00000000  00000+0  00000-0 0  9992
2 10017  65.0000  48.0000 0000000   0.0000 138.0000 12.77881384    16
CTC2_L_00399005-03
1 10018U 26589VT  26075.70045139  .00000000  00000+0  00000-0 0  9998
2 10018  65.0000  48.0000 0000000   0.0000 228.0000 12.77881384    17
CTC2_L_00399005-04
1 10019U 24197CM  26075.70045139  .00000000  00000+0  00000-0 0  9992
2 10019  65.0000  48.0000 0000000   0.0000 318.0000 12.77881384    18
CTC2_L_00399006-01
1 10020U 24380JS  26075.70045139  .00000000  00000+0  00000-0 0  9998
2 10020  65.0000  60.0000 0000000   0.0000  60.0000 12.77881384    18
CTC2_L_00399006-02
1 10021U 24833HX  26075.70045139  .00000000  00000+0  00000-0 0  9992
2 10021  65.0000  60.0000 0000000   0.0000 150.0000 12.77881384    19
CTC2_L_00399006-03
1 10022U 25036KQ  26075.70045139  .00000000  00000+0  00000-0 0  9999
2 10022  65.0000  60.0000 0000000   0.0000 240.0000 12.77881384    10
CTC2_L_00399006-04
1 10023U 23616AB  26075.70045139  .00000000  00000+0  00000-0 0  9992
2 10023  65.0000  60.0000 0000000   0.0000 330.0000 12.77881384    11
CTC2_L_00399007-01
1 10024U 23965DT  26075.70045139  .00000000  00000+0  00000-0 0  9990
2 10024  65.0000  72.0000 0000000   0.0000  72.0000 12.77881384    18
CTC2_L_00399007-02
1 10025U 24941CO  26075.70045139  .00000000  00000+0  00000-0 0  9996
2 10025  65.0000  72.0000 0000000   0.0000 162.0000 12.77881384    19
CTC2_L_00399007-03
1 10026U 22630IY  26075.70045139  .00000000  00000+0  00000-0 0  9990
2 10026  65.0000  72.0000 0000000   0.0000 252.0000 12.77881384    10
CTC2_L_00399007-04
1 10027U 22976XC  26075.70045139  .00000000  00000+0  00000-0 0  9994
2 10027  65.0000  72.0000 0000000   0.0000 342.0000 12.77881384    11
CTC2_L_00399008-01
1 10028U 25034IE  26075.70045139  .00000000  00000+0  00000-0 0  9993
2 10028  65.0000  84.0000 0000000   0.0000  84.0000 12.77881384    18
CTC2_L_00399008-02
1 10029U 25016JT  26075.70045139  .00000000  00000+0  00000-0 0  9994
2 10029  65.0000  84.0000 0000000   0.0000 174.0000 12.77881384    19
CTC2_L_00399008-03
1 10030U 24158XJ  26075.70045139  .00000000  00000+0  00000-0 0  9992
2 10030  65.0000  84.0000 0000000   0.0000 264.0000 12.77881384    11
CTC2_L_00399008-04
1 10031U 26084IT  26075.70045139  .00000000  00000+0  00000-0 0  9993
2 10031  65.0000  84.0000 0000000   0.0000 354.0000 12.77881384    12
CTC2_L_00399009-01
1 10032U 23476LS  26075.70045139  .00000000  00000+0  00000-0 0  9996
2 10032  65.0000  96.0000 0000000   0.0000  96.0000 12.77881384    19
CTC2_L_00399009-02
1 10033U 24746JS  26075.70045139  .00000000  00000+0  00000-0 0  9998
2 10033  65.0000  96.0000 0000000   0.0000 186.0000 12.77881384    10
CTC2_L_00399009-03
1 10034U 26251EQ  26075.70045139  .00000000  00000+0  00000-0 0  9992
2 10034  65.0000  96.0000 0000000   0.0000 276.0000 12.77881384    11
CTC2_L_00399009-04
1 10035U 25055UY  26075.70045139  .00000000  00000+0  00000-0 0  9994
2 10035  65.0000  96.0000 0000000   0.0000   6.0000 12.77881384    13
CTC2_L_00399010-01
1 10036U 25945NH  26075.70045139  .00000000  00000+0  00000-0 0  9993
2 10036  65.0000 108.0000 0000000   0.0000 108.0000 12.77881384    11
CTC2_L_00399010-02
1 10037U 25127WD  26075.70045139  .00000000  00000+0  00000-0 0  9996
2 10037  65.0000 108.0000 0000000   0.0000 198.0000 12.77881384    11
CTC2_L_00399010-03
1 10038U 22964LE  26075.70045139  .00000000  00000+0  00000-0 0  9993
2 10038  65.0000 108.0000 0000000   0.0000 288.0000 12.77881384    12
CTC2_L_00399010-04
1 10039U 25734BO  26075.70045139  .00000000  00000+0  00000-0 0  9992
2 10039  65.0000 108.0000 0000000   0.0000  18.0000 12.77881384    14
CTC2_L_00399011-01
1 10040U 24213MZ  26075.70045139  .00000000  00000+0  00000-0 0  9995
2 10040  65.0000 120.0000 0000000   0.0000 120.0000 12.77881384    14
CTC2_L_00399011-02
1 10041U 22100MT  26075.70045139  .00000000  00000+0  00000-0 0  9999
2 10041  65.0000 120.0000 0000000   0.0000 210.0000 12.77881384    15
CTC2_L_00399011-03
1 10042U 25551VJ  26075.70045139  .00000000  00000+0  00000-0 0  9993
2 10042  65.0000 120.0000 0000000   0.0000 300.0000 12.77881384    16
CTC2_L_00399011-04
1 10043U 26184TA  26075.70045139  .00000000  00000+0  00000-0 0  9997
2 10043  65.0000 120.0000 0000000   0.0000  30.0000 12.77881384    17
CTC2_L_00399012-01
1 10044U 26198VA  26075.70045139  .00000000  00000+0  00000-0 0  9993
2 10044  65.0000 132.0000 0000000   0.0000 132.0000 12.77881384    14
CTC2_L_00399012-02
1 10045U 25191MZ  26075.70045139  .00000000  00000+0  00000-0 0  9996
2 10045  65.0000 132.0000 0000000   0.0000 222.0000 12.77881384    15
CTC2_L_00399012-03
1 10046U 23113XS  26075.70045139  .00000000  00000+0  00000-0 0  9999
2 10046  65.0000 132.0000 0000000   0.0000 312.0000 12.77881384    16
CTC2_L_00399012-04
1 10047U 23079WI  26075.70045139  .00000000  00000+0  00000-0 0  9991
2 10047  65.0000 132.0000 0000000   0.0000  42.0000 12.77881384    17
CTC2_L_00399013-01
1 10048U 26240YP  26075.70045139  .00000000  00000+0  00000-0 0  9995
2 10048  65.0000 144.0000 0000000   0.0000 144.0000 12.77881384    14
CTC2_L_00399013-02
1 10049U 26653JG  26075.70045139  .00000000  00000+0  00000-0 0  9994
2 10049  65.0000 144.0000 0000000   0.0000 234.0000 12.77881384    15
CTC2_L_00399013-03
1 10050U 26034FJ  26075.70045139  .00000000  00000+0  00000-0 0  9999
2 10050  65.0000 144.0000 0000000   0.0000 324.0000 12.77881384    17
CTC2_L_00399013-04
1 10051U 24748OQ  26075.70045139  .00000000  00000+0  00000-0 0  9990
2 10051  65.0000 144.0000 0000000   0.0000  54.0000 12.77881384    18
CTC2_L_00399014-01
1 10052U 24842FZ  26075.70045139  .00000000  00000+0  00000-0 0  9996
2 10052  65.0000 156.0000 0000000   0.0000 156.0000 12.77881384    15
CTC2_L_00399014-02
1 10053U 26593BY  26075.70045139  .00000000  00000+0  00000-0 0  9992
2 10053  65.0000 156.0000 0000000   0.0000 246.0000 12.77881384    16
CTC2_L_00399014-03
1 10054U 26194ZJ  26075.70045139  .00000000  00000+0  00000-0 0  9990
2 10054  65.0000 156.0000 0000000   0.0000 336.0000 12.77881384    17
CTC2_L_00399014-04
1 10055U 25722JW  26075.70045139  .00000000  00000+0  00000-0 0  9997
2 10055  65.0000 156.0000 0000000   0.0000  66.0000 12.77881384    18
CTC2_L_00399015-01
1 10056U 24420RM  26075.70045139  .00000000  00000+0  00000-0 0  9992
2 10056  65.0000 168.0000 0000000   0.0000 168.0000 12.77881384    15
CTC2_L_00399015-02
1 10057U 22451SA  26075.70045139  .00000000  00000+0  00000-0 0  9995
2 10057  65.0000 168.0000 0000000   0.0000 258.0000 12.77881384    16
CTC2_L_00399015-03
1 10058U 25164GQ  26075.70045139  .00000000  00000+0  00000-0 0  9990
2 10058  65.0000 168.0000 0000000   0.0000 348.0000 12.77881384    17
CTC2_L_00399015-04
1 10059U 23878ZY  26075.70045139  .00000000  00000+0  00000-0 0  9991
2 10059  65.0000 168.0000 0000000   0.0000  78.0000 12.77881384    18
CTC2_L_00399016-01
1 10060U 25009AV  26075.70045139  .00000000  00000+0  00000-0 0  9991
2 10060  65.0000 180.0000 0000000   0.0000 180.0000 12.77881384    18
CTC2_L_00399016-02
1 10061U 23972H   26075.70045139  .00000000  00000+0  00000-0 0  9999
2 10061  65.0000 180.0000 0000000   0.0000 270.0000 12.77881384    19
